# From MPEC 2022-X67
436P/Garradd,e,20.2019,87.1711,282.6963,5.934415,0.0681769,0.66965415,53.4195,01/31.0/2024,2000,g 14.5,4.0
# From MPEC 2023-B57
437P/Lemmon-PANSTARRS,e,3.6888,245.8464,206.8718,4.564894,0.1010550,0.25497599,53.5331,01/31.0/2024,2000,g 13.0,4.0
# From MPEC 2021-W47
438P/Christensen,e,8.2814,260.1205,59.0384,3.850386,0.1304511,0.41471002,182.2041,01/31.0/2024,2000,g 14.5,4.0
# From MPEC 2022-C56
439P/LINEAR,e,7.1136,56.4341,342.0712,3.490612,0.1511304,0.46953745,134.1465,01/31.0/2024,2000,g 13.5,4.0
# From MPEC 2022-WQ9
440P/Kobayashi,e,12.3413,328.8497,183.2871,8.577257,0.0392357,0.76049491,26.3685,01/31.0/2024,2000,g 15.5,4.0
# From MPEC 2022-X67
441P/PANSTARRS,e,2.5744,143.6047,178.8477,4.133958,0.1172614,0.19510669,291.1408,01/31.0/2024,2000,g 13.5,4.0
# From MPEC 2024-BE0
442P/McNaught,e,6.0581,32.0067,310.7641,4.965121,0.0890860,0.53281291,47.2619,01/31.0/2024,2000,g 13.5,4.0
# From MPEC 2023-SQ0
443P/PANSTARRS-Christensen,e,19.8883,108.9430,145.1091,4.125676,0.1176146,0.28340498,56.2107,01/31.0/2024,2000,g 13.5,4.0
# From MPEC 2023-VM5
444P/WISE-PANSTARRS,e,22.2257,89.0065,171.4856,3.438230,0.1545972,0.57061847,87.9896,01/31.0/2024,2000,g 17.0,4.0
# From MPEC 2024-BE0
445P/Lemmon-PANSTARRS,e,1.0885,126.5931,213.4148,4.052251,0.1208257,0.41400877,64.2857,01/31.0/2024,2000,g 15.0,4.0
# From MPEC 2022-WQ9
446P/McNaught,e,16.6147,336.3826,344.6825,4.565972,0.1010193,0.64679713,61.7839,01/31.0/2024,2000,g 16.5,4.0
# From MPEC 2022-YB4
447P/Sheppard-Tholen,e,7.4372,302.6414,97.7312,5.633715,0.0737075,0.17854011,39.0566,01/31.0/2024,2000,g 12.0,4.0
# From MPEC 2023-A50
448P/PANSTARRS,e,12.1505,161.7565,218.7501,3.634711,0.1422326,0.41870524,72.7481,01/31.0/2024,2000,g 16.0,4.0
# From MPEC 2022-UE6
449P/Leonard,e,15.4665,242.5403,176.7048,3.600115,0.1442878,0.47983288,167.7397,01/31.0/2024,2000,g 16.0,4.0
# From MPEC 2024-AF0
450P/LONEOS,e,10.5570,124.7915,21.3535,7.972759,0.0437815,0.31194520,312.6107,01/31.0/2024,2000,g  6.5,4.0
# From MPEC 2023-HD1
451P/Christensen,e,26.4795,300.8967,186.7212,6.343741,0.0616859,0.55885897,26.4869,01/31.0/2024,2000,g 15.5,4.0
# From MPEC 2023-J29
452P/Sheppard-Jewitt,e,6.4215,123.6871,37.0443,7.301914,0.0499516,0.42781615,14.0085,01/31.0/2024,2000,g  9.0,4.0
# From MPEC 2023-RF3
453P/WISE-Lemmon,e,27.0679,42.8960,70.8488,5.462084,0.0772088,0.58283436,25.7799,01/31.0/2024,2000,g 14.0,4.0
# From MPEC 2023-CD7
454P/PANSTARRS,e,19.8127,54.5825,20.0799,4.208186,0.1141726,0.36156756,63.2158,01/31.0/2024,2000,g 14.0,4.0
# From MPEC 2022-Y14
455P/PANSTARRS,e,14.1377,146.1843,237.5072,3.152707,0.1760673,0.30487406,59.8264,01/31.0/2024,2000,g 17.0,4.0
# From MPEC 2023-N01
456P/PANSTARRS,e,16.9654,243.1657,233.7764,3.170841,0.1745590,0.11769557,282.6444,01/31.0/2024,2000,g 13.5,4.0
# From MPEC 2023-F99
457P/Lemmon-PANSTARRS,e,5.2251,175.9730,104.4017,2.646119,0.2289760,0.11871683,313.6570,01/31.0/2024,2000,g 15.5,4.0
# From MPEC 2023-HD1
458P/Jahn,e,13.6268,1.5866,104.8304,3.857516,0.1300896,0.31708847,59.5410,01/31.0/2024,2000,g 17.3,4.0
# From MPEC 2023-UR6
459P/Catalina,e,7.1726,256.9906,205.1994,3.239672,0.1690256,0.57768745,58.0740,01/31.0/2024,2000,g 15.5,4.0
# From MPEC 2023-G14
460P/PANSTARRS,e,18.8955,180.5151,351.9552,3.027081,0.1871406,0.66402133,179.3962,01/31.0/2024,2000,g 21.0,4.0
# From MPEC 2023-J95
461P/WISE,e,18.4102,194.3780,174.8259,3.143223,0.1768647,0.57013217,150.0007,01/31.0/2024,2000,g 18.5,4.0
# From MPEC 2024-BE0
462P/LONEOS-PANSTARRS,e,7.0267,322.7877,4.3788,4.878293,0.0914750,0.57823414,50.0433,01/31.0/2024,2000,g 17.0,4.0
# From MPEC 2023-XP6
463P/NEOWISE,e,29.2842,283.2094,216.3583,2.974517,0.1921230,0.82560087,59.0525,01/31.0/2024,2000,g 18.0,4.0
# From MPEC 2023-RF3
464P/PANSTARRS,e,21.6662,309.5811,267.6547,4.686932,0.0971340,0.28052142,32.7467,01/31.0/2024,2000,g 10.5,4.0
# From MPEC 2024-AF0
465P/Hill,e,25.8711,218.0100,141.1639,6.033801,0.0664994,0.61407046,17.7085,01/31.0/2024,2000,g 12.5,4.0
# From MPEC 2023-VM5
466P/PANSTARRS,e,12.2352,119.8273,196.7919,4.046595,0.1210792,0.46748040,32.9520,01/31.0/2024,2000,g 14.0,4.0
# From MPEC 2023-T65
467P/LINEAR-Grauer,e,2.4788,43.2708,267.8349,5.831367,0.0699920,0.05536113,29.7738,01/31.0/2024,2000,g  9.0,4.0
# From MPEC 2023-XP6
468P/SidingSpring,e,50.4461,356.1240,322.5615,7.123373,0.0518413,0.44550463,3.6757,01/31.0/2024,2000,g 11.5,4.0
# From MPEC 2023-P35
469P/PANSTARRS,e,20.1741,178.9654,43.5302,4.339955,0.1090125,0.30751402,286.1206,01/31.0/2024,2000,g 13.5,4.0
# From MPEC 2024-AF0
470P/PANSTARRS,e,8.8410,246.1757,152.0092,4.476966,0.1040467,0.39050834,4.5714,01/31.0/2024,2000,g 15.5,4.0
# From MPEC 2024-BE0
471P/,e,4.7908,283.3319,94.9695,5.710103,0.0722334,0.62816147,3.0130,01/31.0/2024,2000,g 12.0,4.0
# From MPEC 2024-BE0
472P/NEAT-LINEAR,e,10.8533,206.0413,219.1266,7.812649,0.0451343,0.56629498,352.4321,01/31.0/2024,2000,g 10.5,4.0
# From MPC107687
1I/`Oumuamua,h,09/09.4886/2017,122.6778,24.5997,241.6845,1.199252,0.255240,2000,23.0,2.0
# From MPEC 2023-L37
2I/Borisov,h,12/08.5548/2019,44.0527,308.1480,209.1251,3.356633,2.006548,2000,11.0,4.0
